{"type": "FeatureCollection", "features": [ {"type": "Feature", "properties": {"norad_id": 43437, "name": "SENTINEL-3B", "group": "resource", "lat": -62.71135849047927, "lon": -138.32238446144365, "alt_km": 810.8300848732188, "timestamp": "2025-12-19T16:54:43.908697+00:00", "meta": {"OBJECT_NAME": "SENTINEL-3B", "OBJECT_ID": "2018-039A", "EPOCH": "2025-12-19T03:59:25.738368", "MEAN_MOTION": 14.26736386, "ECCENTRICITY": 0.0001621, "INCLINATION": 98.626, "RA_OF_ASC_NODE": 58.2593, "ARG_OF_PERICENTER": 95.3143, "MEAN_ANOMALY": 264.8222, "EPHEMERIS_TYPE": 0, "CLASSIFICATION_TYPE": "U", "NORAD_CAT_ID": 43437, "ELEMENT_SET_NO": 999, "REV_AT_EPOCH": 39845, "BSTAR": 6.4159953e-05, "MEAN_MOTION_DOT": 1.12e-06, "MEAN_MOTION_DDOT": 0}, "tle": {"line1": "1 43437U 18039A   25353.16627012  .00000112  00000+0  64160-4 0  9999", "line2": "2 43437  98.6260  58.2593 0001621  95.3143 264.8222 14.26736386398452"}}, "geometry": {"type": "Point", "coordinates": [-138.32238446144365, -62.71135849047927]}}, {"type": "Feature", "properties": {"norad_id": 43461, "name": "GAOFEN-5 01", "group": "resource", "lat": -3.8388522919841774, "lon": -42.63587393986269, "alt_km": 695.0540673970945, "timestamp": "2025-12-19T16:54:43.908707+00:00", "meta": {"OBJECT_NAME": "GAOFEN-5 01", "OBJECT_ID": "2018-043A", "EPOCH": "2025-12-19T03:46:30.833184", "MEAN_MOTION": 14.60416512, "ECCENTRICITY": 5.821e-05, "INCLINATION": 98.4333, "RA_OF_ASC_NODE": 316.2368, "ARG_OF_PERICENTER": 303.4918, "MEAN_ANOMALY": 56.6226, "EPHEMERIS_TYPE": 0, "CLASSIFICATION_TYPE": "U", "NORAD_CAT_ID": 43461, "ELEMENT_SET_NO": 999, "REV_AT_EPOCH": 40541, "BSTAR": 8.1170792e-05, "MEAN_MOTION_DOT": 3.44e-06, "MEAN_MOTION_DDOT": 0}, "tle": {"line1": "1 43461U 18043A   25353.15730131  .00000344  00000+0  81171-4 0  9995", "line2": "2 43461  98.4333 316.2368 0000582 303.4918  56.6226 14.60416512405413"}}, "geometry": {"type": "Point", "coordinates": [-42.63587393986269, -3.8388522919841774]}}, {"type": "Feature", "properties": {"norad_id": 43484, "name": "GAOFEN-6", "group": "resource", "lat": 35.440909175406375, "lon": 52.13706771319364, "alt_km": 628.7834787872143, "timestamp": "2025-12-19T16:54:43.908717+00:00", "meta": {"OBJECT_NAME": "GAOFEN-6", "OBJECT_ID": "2018-048A", "EPOCH": "2025-12-19T06:59:33.584352", "MEAN_MOTION": 14.7657886, "ECCENTRICITY": 0.00128992, "INCLINATION": 97.803, "RA_OF_ASC_NODE": 57.3386, "ARG_OF_PERICENTER": 44.3147, "MEAN_ANOMALY": 315.9094, "EPHEMERIS_TYPE": 0, "CLASSIFICATION_TYPE": "U", "NORAD_CAT_ID": 43484, "ELEMENT_SET_NO": 999, "REV_AT_EPOCH": 40684, "BSTAR": 0.00014465727, "MEAN_MOTION_DOT": 9.61e-06, "MEAN_MOTION_DDOT": 0}, "tle": {"line1": "1 43484U 18048A   25353.29136093  .00000961  00000+0  14466-3 0  9994", "line2": "2 43484  97.8030  57.3386 0012899  44.3147 315.9094 14.76578860406841"}}, "geometry": {"type": "Point", "coordinates": [52.13706771319364, 35.440909175406375]}}, {"type": "Feature", "properties": {"norad_id": 43585, "name": "GAOFEN-11 01", "group": "resource", "lat": -43.11883526984773, "lon": -130.17435069289692, "alt_km": 423.63588414674996, "timestamp": "2025-12-19T16:54:43.908728+00:00", "meta": {"OBJECT_NAME": "GAOFEN-11 01", "OBJECT_ID": "2018-063A", "EPOCH": "2025-12-19T06:39:01.122048", "MEAN_MOTION": 15.49399929, "ECCENTRICITY": 0.00039438, "INCLINATION": 97.1561, "RA_OF_ASC_NODE": 56.158, "ARG_OF_PERICENTER": 279.6714, "MEAN_ANOMALY": 80.4092, "EPHEMERIS_TYPE": 0, "CLASSIFICATION_TYPE": "U", "NORAD_CAT_ID": 43585, "ELEMENT_SET_NO": 999, "REV_AT_EPOCH": 41243, "BSTAR": 0.00024249714, "MEAN_MOTION_DOT": 0.00013223, "MEAN_MOTION_DDOT": 0}, "tle": {"line1": "1 43585U 18063A   25353.27709632  .00013223  00000+0  24250-3 0  9993", "line2": "2 43585  97.1561  56.1580 0003943 279.6714  80.4092 15.49399929412433"}}, "geometry": {"type": "Point", "coordinates": [-130.17435069289692, -43.11883526984773]}}, {"type": "Feature", "properties": {"norad_id": 43613, "name": "ICESAT-2", "group": "resource", "lat": 28.70618297692321, "lon": 63.71605510963781, "alt_km": 477.8806326714275, "timestamp": "2025-12-19T16:54:43.908738+00:00", "meta": {"OBJECT_NAME": "ICESAT-2", "OBJECT_ID": "2018-070A", "EPOCH": "2025-12-19T05:15:10.228896", "MEAN_MOTION": 15.28307439, "ECCENTRICITY": 0.00029329, "INCLINATION": 92.005, "RA_OF_ASC_NODE": 242.4857, "ARG_OF_PERICENTER": 128.6198, "MEAN_ANOMALY": 231.5314, "EPHEMERIS_TYPE": 0, "CLASSIFICATION_TYPE": "U", "NORAD_CAT_ID": 43613, "ELEMENT_SET_NO": 999, "REV_AT_EPOCH": 40497, "BSTAR": 0.00032873283, "MEAN_MOTION_DOT": 9.062e-05, "MEAN_MOTION_DDOT": 0}, "tle": {"line1": "1 43613U 18070A   25353.21886839  .00009062  00000+0  32873-3 0  9998", "line2": "2 43613  92.0050 242.4857 0002932 128.6198 231.5314 15.28307439404973"}}, "geometry": {"type": "Point", "coordinates": [63.71605510963781, 28.70618297692321]}}, {"type": "Feature", "properties": {"norad_id": 43719, "name": "HYSIS", "group": "resource", "lat": 55.58304661304964, "lon": -111.49173614770186, "alt_km": 628.0457455862697, "timestamp": "2025-12-19T16:54:43.908748+00:00", "meta": {"OBJECT_NAME": "HYSIS", "OBJECT_ID": "2018-096A", "EPOCH": "2025-12-19T06:36:40.174272", "MEAN_MOTION": 14.78663019, "ECCENTRICITY": 0.00010706, "INCLINATION": 98.0096, "RA_OF_ASC_NODE": 56.2217, "ARG_OF_PERICENTER": 51.0945, "MEAN_ANOMALY": 309.0361, "EPHEMERIS_TYPE": 0, "CLASSIFICATION_TYPE": "U", "NORAD_CAT_ID": 43719, "ELEMENT_SET_NO": 999, "REV_AT_EPOCH": 38083, "BSTAR": 0.00017280821, "MEAN_MOTION_DOT": 1.214e-05, "MEAN_MOTION_DDOT": 0}, "tle": {"line1": "1 43719U 18096A   25353.27546498  .00001214  00000+0  17281-3 0  9990", "line2": "2 43719  98.0096  56.2217 0001070  51.0945 309.0361 14.78663019380832"}}, "geometry": {"type": "Point", "coordinates": [-111.49173614770186, 55.58304661304964]}}, {"type": "Feature", "properties": {"norad_id": 43783, "name": "KAZSTSAT", "group": "resource", "lat": 21.962137828881982, "lon": -148.3836572935472, "alt_km": 571.9361463881423, "timestamp": "2025-12-19T16:54:43.908759+00:00", "meta": {"OBJECT_NAME": "KAZSTSAT", "OBJECT_ID": "2018-099AB", "EPOCH": "2025-12-19T01:47:43.400832", "MEAN_MOTION": 14.99363796, "ECCENTRICITY": 0.00059468, "INCLINATION": 97.4535, "RA_OF_ASC_NODE": 27.9874, "ARG_OF_PERICENTER": 301.8992, "MEAN_ANOMALY": 58.1653, "EPHEMERIS_TYPE": 0, "CLASSIFICATION_TYPE": "U", "NORAD_CAT_ID": 43783, "ELEMENT_SET_NO": 999, "REV_AT_EPOCH": 38431, "BSTAR": 3.2653117e-05, "MEAN_MOTION_DOT": 3.44e-06, "MEAN_MOTION_DDOT": 0}, "tle": {"line1": "1 43783U 18099AB  25353.07480788  .00000344  00000+0  32653-4 0  9995", "line2": "2 43783  97.4535  27.9874 0005946 301.8992  58.1653 14.99363796384317"}}, "geometry": {"type": "Point", "coordinates": [-148.3836572935472, 21.962137828881982]}}, {"type": "Feature", "properties": {"norad_id": 43831, "name": "SAUDISAT 5A", "group": "resource", "lat": 29.59122310696736, "lon": -122.04329567910503, "alt_km": 487.93443664650204, "timestamp": "2025-12-19T16:54:43.908769+00:00", "meta": {"OBJECT_NAME": "SAUDISAT 5A", "OBJECT_ID": "2018-102A", "EPOCH": "2025-12-19T06:48:49.084416", "MEAN_MOTION": 15.25733958, "ECCENTRICITY": 0.00114737, "INCLINATION": 97.3349, "RA_OF_ASC_NODE": 53.3491, "ARG_OF_PERICENTER": 56.0839, "MEAN_ANOMALY": 304.1489, "EPHEMERIS_TYPE": 0, "CLASSIFICATION_TYPE": "U", "NORAD_CAT_ID": 43831, "ELEMENT_SET_NO": 999, "REV_AT_EPOCH": 38822, "BSTAR": 0.00017965576, "MEAN_MOTION_DOT": 4.518e-05, "MEAN_MOTION_DDOT": 0}, "tle": {"line1": "1 43831U 18102A   25353.28390144  .00004518  00000+0  17966-3 0  9999", "line2": "2 43831  97.3349  53.3491 0011473  56.0839 304.1489 15.25733958388228"}}, "geometry": {"type": "Point", "coordinates": [-122.04329567910503, 29.59122310696736]}}, {"type": "Feature", "properties": {"norad_id": 43833, "name": "SAUDISAT 5B", "group": "resource", "lat": -30.820049847910084, "lon": -127.9003850835415, "alt_km": 501.16134078069354, "timestamp": "2025-12-19T16:54:43.908780+00:00", "meta": {"OBJECT_NAME": "SAUDISAT 5B", "OBJECT_ID": "2018-102C", "EPOCH": "2025-12-19T08:07:22.442016", "MEAN_MOTION": 15.26083661, "ECCENTRICITY": 0.00122113, "INCLINATION": 97.3444, "RA_OF_ASC_NODE": 56.153, "ARG_OF_PERICENTER": 58.1405, "MEAN_ANOMALY": 302.102, "EPHEMERIS_TYPE": 0, "CLASSIFICATION_TYPE": "U", "NORAD_CAT_ID": 43833, "ELEMENT_SET_NO": 999, "REV_AT_EPOCH": 38834, "BSTAR": 0.0001791828, "MEAN_MOTION_DOT": 4.555e-05, "MEAN_MOTION_DDOT": 0}, "tle": {"line1": "1 43833U 18102C   25353.33845419  .00004555  00000+0  17918-3 0  9995", "line2": "2 43833  97.3444  56.1530 0012211  58.1405 302.1020 15.26083661388346"}}, "geometry": {"type": "Point", "coordinates": [-127.9003850835415, -30.820049847910084]}}, {"type": "Feature", "properties": {"norad_id": 44622, "name": "GAOFEN-10R", "group": "resource", "lat": 27.742921360200487, "lon": 125.49564607682365, "alt_km": 622.6722155373745, "timestamp": "2025-12-19T16:54:43.908791+00:00", "meta": {"OBJECT_NAME": "GAOFEN-10R", "OBJECT_ID": "2019-066A", "EPOCH": "2025-12-19T06:30:46.262592", "MEAN_MOTION": 14.82812997, "ECCENTRICITY": 0.00074448, "INCLINATION": 98.0286, "RA_OF_ASC_NODE": 300.8032, "ARG_OF_PERICENTER": 23.1061, "MEAN_ANOMALY": 337.0486, "EPHEMERIS_TYPE": 0, "CLASSIFICATION_TYPE": "U", "NORAD_CAT_ID": 44622, "ELEMENT_SET_NO": 999, "REV_AT_EPOCH": 33571, "BSTAR": 0.000146243, "MEAN_MOTION_DOT": 1.129e-05, "MEAN_MOTION_DDOT": 0}, "tle": {"line1": "1 44622U 19066A   25353.27136878  .00001129  00000+0  14624-3 0  9992", "line2": "2 44622  98.0286 300.8032 0007444  23.1061 337.0486 14.82812997335712"}}, "geometry": {"type": "Point", "coordinates": [125.49564607682365, 27.742921360200487]}}]}